KAZSTSAT                
1 43783U 18099AB  26068.61895971  .00001354  00000+0  11446-3 0  9991
2 43783  97.4396 105.0128 0006528  11.1145 349.0222 14.99620503396386
STARLINK-36132          
1 67028U 25293AB  26068.48234300 -.00008334  00000+0 -69178-3 0  9993
2 67028  70.0004  95.1029 0003835 273.1454  86.9266 14.98312738 14858
